[
    {
        "Altitude(m)": 707178.9301578623,
        "Argument of Periapsis(deg)": 0.0,
        "Eccentricity": 0.0,
        "Inclination(deg)": 45.0,
        "Latitude(deg)": 44.57275853754065,
        "Longitude(deg)": -23.463813078249878,
        "Mean Anomaly(deg)": -261.8182,
        "RAAN(deg)": 335.0,
        "Satellite Name": "Constellation 1 1480",
        "Satellite Number": 1480,
        "Semi-Major Axis(m)": 7083131.272910544,
        "Time(s)": 0
    },
    {
        "Altitude(m)": 707176.9940961269,
        "Argument of Periapsis(deg)": 5.994800624540561e-05,
        "Eccentricity": 0.0,
        "Inclination(deg)": 45.0,
        "Latitude(deg)": 44.564147978023435,
        "Longitude(deg)": -23.383751324738665,
        "Mean Anomaly(deg)": -261.7574988597501,
        "RAAN(deg)": 334.9999434108345,
        "Satellite Name": "Constellation 1 1480",
        "Satellite Number": 1480,
        "Semi-Major Axis(m)": 7083131.272910544,
        "Time(s)": 1
    },
    {
        "Altitude(m)": 707175.0441756711,
        "Argument of Periapsis(deg)": 0.00011989601249081122,
        "Eccentricity": 0.0,
        "Inclination(deg)": 45.0,
        "Latitude(deg)": 44.55547541938579,
        "Longitude(deg)": -23.303714471543326,
        "Mean Anomaly(deg)": -261.69679771950024,
        "RAAN(deg)": 334.9998868216689,
        "Satellite Name": "Constellation 1 1480",
        "Satellite Number": 1480,
        "Semi-Major Axis(m)": 7083131.272910544,
        "Time(s)": 2
    },
    {
        "Altitude(m)": 707173.0804079636,
        "Argument of Periapsis(deg)": 0.00017984401873621686,
        "Eccentricity": 0.0,
        "Inclination(deg)": 45.0,
        "Latitude(deg)": 44.54674089844914,
        "Longitude(deg)": -23.22370268219572,
        "Mean Anomaly(deg)": -261.6360965792503,
        "RAAN(deg)": 334.9998302325033,
        "Satellite Name": "Constellation 1 1480",
        "Satellite Number": 1480,
        "Semi-Major Axis(m)": 7083131.272910544,
        "Time(s)": 3
    },
    {
        "Altitude(m)": 707171.102804562,
        "Argument of Periapsis(deg)": 0.00023979202498162244,
        "Eccentricity": 0.0,
        "Inclination(deg)": 45.0,
        "Latitude(deg)": 44.53794445227021,
        "Longitude(deg)": -23.14371611980993,
        "Mean Anomaly(deg)": -261.57539543900043,
        "RAAN(deg)": 334.99977364333773,
        "Satellite Name": "Constellation 1 1480",
        "Satellite Number": 1480,
        "Semi-Major Axis(m)": 7083131.272910544,
        "Time(s)": 4
    },
    {
        "Altitude(m)": 707169.1113771017,
        "Argument of Periapsis(deg)": 0.00029974003122702807,
        "Eccentricity": 0.0,
        "Inclination(deg)": 45.0,
        "Latitude(deg)": 44.529086118140256,
        "Longitude(deg)": -23.06375494708006,
        "Mean Anomaly(deg)": -261.51469429875056,
        "RAAN(deg)": 334.99971705417215,
        "Satellite Name": "Constellation 1 1480",
        "Satellite Number": 1480,
        "Semi-Major Axis(m)": 7083131.272910544,
        "Time(s)": 5
    },
    {
        "Altitude(m)": 707167.1061373007,
        "Argument of Periapsis(deg)": 0.00035968803747243373,
        "Eccentricity": 0.0,
        "Inclination(deg)": 45.0,
        "Latitude(deg)": 44.520165933584444,
        "Longitude(deg)": -22.983819326277995,
        "Mean Anomaly(deg)": -261.4539931585006,
        "RAAN(deg)": 334.9996604650066,
        "Satellite Name": "Constellation 1 1480",
        "Satellite Number": 1480,
        "Semi-Major Axis(m)": 7083131.272910544,
        "Time(s)": 6
    },
    {
        "Altitude(m)": 707165.0870969582,
        "Argument of Periapsis(deg)": 0.00041963604371783933,
        "Eccentricity": 0.0,
        "Inclination(deg)": 45.0,
        "Latitude(deg)": 44.51118393636084,
        "Longitude(deg)": -22.90390958734836,
        "Mean Anomaly(deg)": -261.3932920182507,
        "RAAN(deg)": 334.99960387584105,
        "Satellite Name": "Constellation 1 1480",
        "Satellite Number": 1480,
        "Semi-Major Axis(m)": 7083131.272910544,
        "Time(s)": 7
    },
    {
        "Altitude(m)": 707163.0542679577,
        "Argument of Periapsis(deg)": 0.0004795840499632449,
        "Eccentricity": 0.0,
        "Inclination(deg)": 45.0,
        "Latitude(deg)": 44.502140164460556,
        "Longitude(deg)": -22.824025555518084,
        "Mean Anomaly(deg)": -261.3325908780008,
        "RAAN(deg)": 334.99954728667547,
        "Satellite Name": "Constellation 1 1480",
        "Satellite Number": 1480,
        "Semi-Major Axis(m)": 7083131.272910544,
        "Time(s)": 8
    },
    {
        "Altitude(m)": 707161.00766226,
        "Argument of Periapsis(deg)": 0.0005395320562086505,
        "Eccentricity": 0.0,
        "Inclination(deg)": 45.0,
        "Latitude(deg)": 44.49303465610566,
        "Longitude(deg)": -22.744167559876352,
        "Mean Anomaly(deg)": -261.2718897377509,
        "RAAN(deg)": 334.9994906975099,
        "Satellite Name": "Constellation 1 1480",
        "Satellite Number": 1480,
        "Semi-Major Axis(m)": 7083131.272910544,
        "Time(s)": 9
    },
    {
        "Altitude(m)": 707158.9472919067,
        "Argument of Periapsis(deg)": 0.0005994800624540561,
        "Eccentricity": 0.0,
        "Inclination(deg)": 45.0,
        "Latitude(deg)": 44.483867449749354,
        "Longitude(deg)": -22.6643357609845,
        "Mean Anomaly(deg)": -261.211188597501,
        "RAAN(deg)": 334.9994341083443,
        "Satellite Name": "Constellation 1 1480",
        "Satellite Number": 1480,
        "Semi-Major Axis(m)": 7083131.272910544,
        "Time(s)": 10
    },
    {
        "Altitude(m)": 707156.8731690316,
        "Argument of Periapsis(deg)": 0.0006594280686994618,
        "Eccentricity": 0.0,
        "Inclination(deg)": 45.0,
        "Latitude(deg)": 44.47463858407505,
        "Longitude(deg)": -22.584530318970707,
        "Mean Anomaly(deg)": -261.1504874572511,
        "RAAN(deg)": 334.9993775191788,
        "Satellite Name": "Constellation 1 1480",
        "Satellite Number": 1480,
        "Semi-Major Axis(m)": 7083131.272910544,
        "Time(s)": 11
    },
    {
        "Altitude(m)": 707154.7853058322,
        "Argument of Periapsis(deg)": 0.0007193760749448675,
        "Eccentricity": 0.0,
        "Inclination(deg)": 45.0,
        "Latitude(deg)": 44.46534809799551,
        "Longitude(deg)": -22.504751393528128,
        "Mean Anomaly(deg)": -261.0897863170012,
        "RAAN(deg)": 334.9993209300132,
        "Satellite Name": "Constellation 1 1480",
        "Satellite Number": 1480,
        "Semi-Major Axis(m)": 7083131.272910544,
        "Time(s)": 12
    },
    {
        "Altitude(m)": 707152.6837146032,
        "Argument of Periapsis(deg)": 0.000779324081190273,
        "Eccentricity": 0.0,
        "Inclination(deg)": 45.0,
        "Latitude(deg)": 44.45599603065223,
        "Longitude(deg)": -22.42499914391252,
        "Mean Anomaly(deg)": -261.0290851767513,
        "RAAN(deg)": 334.9992643408477,
        "Satellite Name": "Constellation 1 1480",
        "Satellite Number": 1480,
        "Semi-Major Axis(m)": 7083131.272910544,
        "Time(s)": 13
    },
    {
        "Altitude(m)": 707150.5684077143,
        "Argument of Periapsis(deg)": 0.0008392720874356787,
        "Eccentricity": 0.0,
        "Inclination(deg)": 45.0,
        "Latitude(deg)": 44.44658242141459,
        "Longitude(deg)": -22.345273728940384,
        "Mean Anomaly(deg)": -260.96838403650145,
        "RAAN(deg)": 334.99920775168204,
        "Satellite Name": "Constellation 1 1480",
        "Satellite Number": 1480,
        "Semi-Major Axis(m)": 7083131.272910544,
        "Time(s)": 14
    },
    {
        "Altitude(m)": 707148.4393976127,
        "Argument of Periapsis(deg)": 0.0008992200936810842,
        "Eccentricity": 0.0,
        "Inclination(deg)": 45.0,
        "Latitude(deg)": 44.43710730987883,
        "Longitude(deg)": -22.26557547508332,
        "Mean Anomaly(deg)": -260.9076828962515,
        "RAAN(deg)": 334.99915116251645,
        "Satellite Name": "Constellation 1 1480",
        "Satellite Number": 1480,
        "Semi-Major Axis(m)": 7083131.272910544,
        "Time(s)": 15
    },
    {
        "Altitude(m)": 707146.296696832,
        "Argument of Periapsis(deg)": 0.0009591680999264898,
        "Eccentricity": 0.0,
        "Inclination(deg)": 45.0,
        "Latitude(deg)": 44.42757073586846,
        "Longitude(deg)": -22.18590420407942,
        "Mean Anomaly(deg)": -260.84698175600164,
        "RAAN(deg)": 334.99909457335093,
        "Satellite Name": "Constellation 1 1480",
        "Satellite Number": 1480,
        "Semi-Major Axis(m)": 7083131.272910544,
        "Time(s)": 16
    },
    {
        "Altitude(m)": 707144.1403179924,
        "Argument of Periapsis(deg)": 0.0010191161061718953,
        "Eccentricity": 0.0,
        "Inclination(deg)": 45.0,
        "Latitude(deg)": 44.41797273943172,
        "Longitude(deg)": -22.10626024151137,
        "Mean Anomaly(deg)": -260.78628061575165,
        "RAAN(deg)": 334.99903798418535,
        "Satellite Name": "Constellation 1 1480",
        "Satellite Number": 1480,
        "Semi-Major Axis(m)": 7083131.272910544,
        "Time(s)": 17
    },
    {
        "Altitude(m)": 707141.9702737809,
        "Argument of Periapsis(deg)": 0.001079064112417301,
        "Eccentricity": 0.0,
        "Inclination(deg)": 45.0,
        "Latitude(deg)": 44.40831336084212,
        "Longitude(deg)": -22.026643744417758,
        "Mean Anomaly(deg)": -260.72557947550183,
        "RAAN(deg)": 334.9989813950198,
        "Satellite Name": "Constellation 1 1480",
        "Satellite Number": 1480,
        "Semi-Major Axis(m)": 7083131.272910544,
        "Time(s)": 18
    }
]